SONATE                  
1 44400U 19038Q   20134.84128169  .00000384  00000-0  26103-4 0  9993
2 44400  97.5370  96.5392 0023690 243.7782 116.1013 15.11926487 47347
